[Satellite]
VERSION=1.1
NAME=BEESAT-3
NICKNAME=BEESAT-3
TLE1=1 39134U 13015E   15055.32022487  .00011495  00000-0  70390-3 0  9996
TLE2=2 39134  64.8740  58.0857 0034571 268.1971  91.5192 15.10042746101647
